STARLINK-1594           
1 46140U 20057Z   20253.50001157 -.00011225  00000-0 -11085-3 0  9991
2 46140  52.9990 332.7032 0004949 293.3802 194.8672 15.64058858  4128
STARLINK-1596           
1 46141U 20057AA  20253.50001157 -.00107778  00000-0 -11825-2 0  9992
2 46141  52.9991 332.7194 0004910 282.7106 197.2280 15.62827508  4122
STARLINK-1597           
1 46142U 20057AB  20253.25001157 -.01138013  00000-0 -15179-1 0  9997
2 46142  53.0000 333.9853 0001276  28.4859 117.8893 15.60190779  1770
STARLINK-1599           
1 46143U 20057AC  20253.25001157  .00022323  00000-0  21701-3 0  9991
2 46143  52.9992 333.5944 0001111  51.4887 270.1335 15.66243954  1775
STARLINK-1606           
1 46144U 20057AD  20253.50001157 -.00002672  00000-0 -20036-4 0  9998
2 46144  53.0000 332.3970 0001486  57.1553 222.0760 15.66290085  4129
STARLINK-1607           
1 46145U 20057AE  20253.50001157 -.00075463  00000-0 -86984-3 0  9990
2 46145  53.0004 332.7192 0001366  54.8623  82.0939 15.61425228  4129
STARLINK-1608           
1 46146U 20057AF  20253.50001157  .00001084  00000-0  17662-4 0  9995
2 46146  53.0012 332.7324 0001322  58.2102  57.0411 15.62777372  4126
STARLINK-1611           
1 46147U 20057AG  20253.50001157 -.00117520  00000-0 -12927-2 0  9998
2 46147  53.0017 332.7258 0002373 320.2418 161.4177 15.62818226  4120
STARLINK-1616           
1 46148U 20057AH  20253.25001157  .00023274  00000-0  22575-3 0  9992
2 46148  53.0006 333.6379 0001175  61.3229 238.6405 15.66272309  1820
STARLINK-1620           
1 46149U 20057AJ  20253.50001157  .05336729  00000-0  45485-1 0  9991
2 46149  52.9986 332.3604 0001856  25.9357 272.3316 15.65164530  4124
STARLINK-1629           
1 46150U 20057AK  20253.50001157  .00001312  00000-0  20216-4 0  9993
2 46150  53.0012 332.7271 0005674 296.7255 179.9747 15.62749410  4122
STARLINK-1631           
1 46151U 20057AL  20253.50001157  .00000528  00000-0  84388-5 0  9993
2 46151  52.9980 331.4759 0002138  63.7232 298.0291 15.72344019  4136
STARLINK-1634           
1 46152U 20057AM  20253.50001157  .00000252  00000-0  85897-5 0  9994
2 46152  52.9986 332.7534 0001360  56.4442  48.8099 15.62750069  4127
STARLINK-1636           
1 46153U 20057AN  20253.50001157 -.00004246  00000-0 -27019-4 0  9995
2 46153  52.9973 331.5018 0001191  77.4562 270.6503 15.72215464  4138
